{
  "type": "FeatureCollection",
  "features": [
    {
      "type": "Feature",
      "properties": {
        "norad_id": 37960,
        "name": "COSMOS 2251 DEB",
        "group": "cosmos-2251-debris",
        "lat": 12.369712864532683,
        "lon": -162.2181826308114,
        "alt_km": 1035.6705006142147,
        "timestamp": "2025-12-08T13:49:32.192142+00:00",
        "meta_object_name": "COSMOS 2251 DEB",
        "meta_object_id": "1993-036BPK",
        "meta_epoch": "2025-12-08T06:56:24.594720",
        "meta_mean_motion": 14.0783693,
        "meta_eccentricity": 0.02491272,
        "meta_inclination": 74.0585,
        "meta_ra_of_asc_node": 194.6906,
        "meta_arg_of_pericenter": 214.4492,
        "meta_mean_anomaly": 144.0284,
        "meta_ephemeris_type": 0,
        "meta_classification_type": "U",
        "meta_norad_cat_id": 37960,
        "meta_element_set_no": 999,
        "meta_rev_at_epoch": 77343,
        "meta_bstar": 0.0012541408,
        "meta_mean_motion_dot": 2.8e-05,
        "meta_mean_motion_ddot": 0,
        "tle_line1": "1 37960U 93036BPK 25342.28917355  .00002800  00000+0  12541-2 0  9996",
        "tle_line2": "2 37960  74.0585 194.6906 0249127 214.4492 144.0284 14.07836930773430"
      },
      "geometry": {
        "type": "Point",
        "coordinates": [
          -162.2181826308114,
          12.369712864532683
        ]
      }
    },
    {
      "type": "Feature",
      "properties": {
        "norad_id": 37961,
        "name": "COSMOS 2251 DEB",
        "group": "cosmos-2251-debris",
        "lat": -6.025451775615402,
        "lon": -33.24126722413713,
        "alt_km": 680.9019493529058,
        "timestamp": "2025-12-08T13:49:32.192153+00:00",
        "meta_object_name": "COSMOS 2251 DEB",
        "meta_object_id": "1993-036BPL",
        "meta_epoch": "2025-12-01T04:44:47.787648",
        "meta_mean_motion": 14.57792656,
        "meta_eccentricity": 0.0041244,
        "meta_inclination": 74.04,
        "meta_ra_of_asc_node": 159.049,
        "meta_arg_of_pericenter": 241.5465,
        "meta_mean_anomaly": 118.1542,
        "meta_ephemeris_type": 0,
        "meta_classification_type": "U",
        "meta_norad_cat_id": 37961,
        "meta_element_set_no": 999,
        "meta_rev_at_epoch": 79897,
        "meta_bstar": 0.001072,
        "meta_mean_motion_dot": 4.934e-05,
        "meta_mean_motion_ddot": 0,
        "tle_line1": "1 37961U 93036BPL 25335.19777532  .00004934  00000+0  10720-2 0  9997",
        "tle_line2": "2 37961  74.0400 159.0490 0041244 241.5465 118.1542 14.57792656798977"
      },
      "geometry": {
        "type": "Point",
        "coordinates": [
          -33.24126722413713,
          -6.025451775615402
        ]
      }
    },
    {
      "type": "Feature",
      "properties": {
        "norad_id": 37966,
        "name": "COSMOS 2251 DEB",
        "group": "cosmos-2251-debris",
        "lat": -15.71255487459813,
        "lon": 63.84182353633879,
        "alt_km": 533.410797301759,
        "timestamp": "2025-12-08T13:49:32.192163+00:00",
        "meta_object_name": "COSMOS 2251 DEB",
        "meta_object_id": "1993-036BPR",
        "meta_epoch": "2025-12-04T00:57:24.425856",
        "meta_mean_motion": 15.1122342,
        "meta_eccentricity": 0.0008631,
        "meta_inclination": 73.977,
        "meta_ra_of_asc_node": 248.6217,
        "meta_arg_of_pericenter": 122.4784,
        "meta_mean_anomaly": 237.7244,
        "meta_ephemeris_type": 0,
        "meta_classification_type": "U",
        "meta_norad_cat_id": 37966,
        "meta_element_set_no": 999,
        "meta_rev_at_epoch": 85211,
        "meta_bstar": 0.0061628837,
        "meta_mean_motion_dot": 0.00105178,
        "meta_mean_motion_ddot": 0,
        "tle_line1": "1 37966U 93036BPR 25338.03986604  .00105178  00000+0  61629-2 0  9996",
        "tle_line2": "2 37966  73.9770 248.6217 0008631 122.4784 237.7244 15.11223420852119"
      },
      "geometry": {
        "type": "Point",
        "coordinates": [
          63.84182353633879,
          -15.71255487459813
        ]
      }
    },
    {
      "type": "Feature",
      "properties": {
        "norad_id": 37967,
        "name": "COSMOS 2251 DEB",
        "group": "cosmos-2251-debris",
        "lat": -35.18234087491266,
        "lon": -23.245197452224634,
        "alt_km": 721.295331658428,
        "timestamp": "2025-12-08T13:49:32.192175+00:00",
        "meta_object_name": "COSMOS 2251 DEB",
        "meta_object_id": "1993-036BPS",
        "meta_epoch": "2025-12-08T04:28:24.535776",
        "meta_mean_motion": 14.40441797,
        "meta_eccentricity": 0.01507915,
        "meta_inclination": 74.0147,
        "meta_ra_of_asc_node": 145.8177,
        "meta_arg_of_pericenter": 285.5804,
        "meta_mean_anomaly": 72.875,
        "meta_ephemeris_type": 0,
        "meta_classification_type": "U",
        "meta_norad_cat_id": 37967,
        "meta_element_set_no": 999,
        "meta_rev_at_epoch": 64670,
        "meta_bstar": 0.0018858516,
        "meta_mean_motion_dot": 6.833e-05,
        "meta_mean_motion_ddot": 0,
        "tle_line1": "1 37967U 93036BPS 25342.18639509  .00006833  00000+0  18859-2 0  9992",
        "tle_line2": "2 37967  74.0147 145.8177 0150791 285.5804  72.8750 14.40441797646708"
      },
      "geometry": {
        "type": "Point",
        "coordinates": [
          -23.245197452224634,
          -35.18234087491266
        ]
      }
    },
    {
      "type": "Feature",
      "properties": {
        "norad_id": 37968,
        "name": "COSMOS 2251 DEB",
        "group": "cosmos-2251-debris",
        "lat": -9.951469954725766,
        "lon": 102.53696134597824,
        "alt_km": 619.7732461090945,
        "timestamp": "2025-12-08T13:49:32.192186+00:00",
        "meta_object_name": "COSMOS 2251 DEB",
        "meta_object_id": "1993-036BPT",
        "meta_epoch": "2025-12-03T03:21:20.781504",
        "meta_mean_motion": 15.00197638,
        "meta_eccentricity": 0.00808241,
        "meta_inclination": 74.0001,
        "meta_ra_of_asc_node": 290.7252,
        "meta_arg_of_pericenter": 48.8285,
        "meta_mean_anomaly": 311.9836,
        "meta_ephemeris_type": 0,
        "meta_classification_type": "U",
        "meta_norad_cat_id": 37968,
        "meta_element_set_no": 999,
        "meta_rev_at_epoch": 60075,
        "meta_bstar": 0.0013441412,
        "meta_mean_motion_dot": 0.00018013,
        "meta_mean_motion_ddot": 0,
        "tle_line1": "1 37968U 93036BPT 25337.13982386  .00018013  00000+0  13441-2 0  9991",
        "tle_line2": "2 37968  74.0001 290.7252 0080824  48.8285 311.9836 15.00197638600750"
      },
      "geometry": {
        "type": "Point",
        "coordinates": [
          102.53696134597824,
          -9.951469954725766
        ]
      }
    },
    {
      "type": "Feature",
      "properties": {
        "norad_id": 37971,
        "name": "COSMOS 2251 DEB",
        "group": "cosmos-2251-debris",
        "lat": 13.623777402107644,
        "lon": -134.42683399226524,
        "alt_km": 686.7650228811672,
        "timestamp": "2025-12-08T13:49:32.192196+00:00",
        "meta_object_name": "COSMOS 2251 DEB",
        "meta_object_id": "1993-036BPW",
        "meta_epoch": "2025-12-07T22:08:36.238560",
        "meta_mean_motion": 14.48519582,
        "meta_eccentricity": 0.00678408,
        "meta_inclination": 73.9925,
        "meta_ra_of_asc_node": 50.7898,
        "meta_arg_of_pericenter": 190.3152,
        "meta_mean_anomaly": 169.6621,
        "meta_ephemeris_type": 0,
        "meta_classification_type": "U",
        "meta_norad_cat_id": 37971,
        "meta_element_set_no": 999,
        "meta_rev_at_epoch": 60608,
        "meta_bstar": 0.0027716956,
        "meta_mean_motion_dot": 0.00010702,
        "meta_mean_motion_ddot": 0,
        "tle_line1": "1 37971U 93036BPW 25341.92264165  .00010702  00000+0  27717-2 0  9993",
        "tle_line2": "2 37971  73.9925  50.7898 0067840 190.3152 169.6621 14.48519582606085"
      },
      "geometry": {
        "type": "Point",
        "coordinates": [
          -134.42683399226524,
          13.623777402107644
        ]
      }
    },
    {
      "type": "Feature",
      "properties": {
        "norad_id": 37975,
        "name": "COSMOS 2251 DEB",
        "group": "cosmos-2251-debris",
        "lat": 5.468185336296852,
        "lon": -26.191068952301173,
        "alt_km": 595.1986578195865,
        "timestamp": "2025-12-08T13:49:32.192207+00:00",
        "meta_object_name": "COSMOS 2251 DEB",
        "meta_object_id": "1993-036BQA",
        "meta_epoch": "2025-12-08T05:39:54.402048",
        "meta_mean_motion": 14.7566979,
        "meta_eccentricity": 0.00966582,
        "meta_inclination": 74.0031,
        "meta_ra_of_asc_node": 332.9016,
        "meta_arg_of_pericenter": 323.2275,
        "meta_mean_anomaly": 36.2292,
        "meta_ephemeris_type": 0,
        "meta_classification_type": "U",
        "meta_norad_cat_id": 37975,
        "meta_element_set_no": 999,
        "meta_rev_at_epoch": 69679,
        "meta_bstar": 0.0047432539,
        "meta_mean_motion_dot": 0.00035118,
        "meta_mean_motion_ddot": 0,
        "tle_line1": "1 37975U 93036BQA 25342.23604632  .00035118  00000+0  47433-2 0  9994",
        "tle_line2": "2 37975  74.0031 332.9016 0096658 323.2275  36.2292 14.75669790696795"
      },
      "geometry": {
        "type": "Point",
        "coordinates": [
          -26.191068952301173,
          5.468185336296852
        ]
      }
    }
  ]
}